[{"OBJECT_NAME":"STARLINK-4769","OBJECT_ID":"2022-114AB","EPOCH":"2026-03-09T01:10:42.078432","MEAN_MOTION":15.08848782,"ECCENTRICITY":0.00015989,"INCLINATION":53.217,"RA_OF_ASC_NODE":297.0856,"ARG_OF_PERICENTER":98.8098,"MEAN_ANOMALY":261.3075,"EPHEMERIS_TYPE":0,"CLASSIFICATION_TYPE":"U","NORAD_CAT_ID":53843,"ELEMENT_SET_NO":999,"REV_AT_EPOCH":19287,"BSTAR":0.00053967341,"MEAN_MOTION_DOT":8.313e-5,"MEAN_MOTION_DDOT":0},{"OBJECT_NAME":"CZ-4B DEB","OBJECT_ID":"2004-035K","EPOCH":"2026-03-08T06:51:30.377664","MEAN_MOTION":15.09293825,"ECCENTRICITY":0.00031468,"INCLINATION":97.5843,"RA_OF_ASC_NODE":91.2716,"ARG_OF_PERICENTER":107.6302,"MEAN_ANOMALY":252.527,"EPHEMERIS_TYPE":0,"CLASSIFICATION_TYPE":"U","NORAD_CAT_ID":29043,"ELEMENT_SET_NO":999,"REV_AT_EPOCH":10418,"BSTAR":0.00031897975,"MEAN_MOTION_DOT":5.021e-5,"MEAN_MOTION_DDOT":0}]
